CCSDS_OMM_VERS,COMMENT,CREATION_DATE,ORIGINATOR,OBJECT_NAME,OBJECT_ID,CENTER_NAME,REF_FRAME,TIME_SYSTEM,MEAN_ELEMENT_THEORY,EPOCH,MEAN_MOTION,ECCENTRICITY,INCLINATION,RA_OF_ASC_NODE,ARG_OF_PERICENTER,MEAN_ANOMALY,EPHEMERIS_TYPE,CLASSIFICATION_TYPE,NORAD_CAT_ID,ELEMENT_SET_NO,REV_AT_EPOCH,BSTAR,MEAN_MOTION_DOT,MEAN_MOTION_DDOT,SEMIMAJOR_AXIS,PERIOD,APOAPSIS,PERIAPSIS,OBJECT_TYPE,RCS_SIZE,COUNTRY_CODE,LAUNCH_DATE,SITE,DECAY_DATE,FILE,GP_ID,TLE_LINE0,TLE_LINE1,TLE_LINE2
"2.0","GENERATED VIA SPACE-TRACK.ORG API","2020-09-04T03:32:17","18 SPCS","SL-18 DEB","1993-014BJ","EARTH","TEME","UTC","SGP4","2020-09-03T19:05:22.583328","14.81329503","0.00715550","75.7396","56.5641","24.3345","336.1191","0","U","35359","999","69388","0.00037535000000","0.00003044","0.0000000000000","7003.267","97.209","675.244","575.020","DEBRIS","SMALL","CIS","1993-03-25","PKMTR","","2813944","160673987","0 SL-18 DEB","1 35359U 93014BJ  20247.79540027 +.00003044 +00000-0 +37535-3 0  9998","2 35359 075.7396 056.5641 0071555 024.3345 336.1191 14.81329503693889"
"2.0","GENERATED VIA SPACE-TRACK.ORG API","2020-09-03T22:00:58","18 SPCS","SL-18 DEB","1993-014BJ","EARTH","TEME","UTC","SGP4","2020-09-03T10:59:06.061056","14.81327407","0.00715780","75.7394","57.1611","25.1904","335.2744","0","U","35359","999","69383","0.00038044000000","0.00003085","0.0000000000000","7003.274","97.210","675.267","575.011","DEBRIS","SMALL","CIS","1993-03-25","PKMTR","","2813871","160650936","0 SL-18 DEB","1 35359U 93014BJ  20247.45770904 +.00003085 +00000-0 +38044-3 0  9991","2 35359 075.7394 057.1611 0071578 025.1904 335.2744 14.81327407693836"
"2.0","GENERATED VIA SPACE-TRACK.ORG API","2020-09-03T22:00:58","18 SPCS","IRIDIUM 176","2019-002B","EARTH","TEME","UTC","SGP4","2020-09-03T07:33:23.521248","14.72251134","0.00022470","86.6158","156.6250","87.2088","272.9386","0","U","43923","999","8838","0.00001973900000","0.00000149","0.0000000000000","7032.027","97.809","655.472","652.312","PAYLOAD","LARGE","US","2019-01-11","AFWTR","","2813871","160659265","0 IRIDIUM 176","1 43923U 19002B   20247.31485557 +.00000149 +00000-0 +19739-4 0  9993","2 43923 086.6158 156.6250 0002247 087.2088 272.9386 14.72251134088384"
"2.0","GENERATED VIA SPACE-TRACK.ORG API","2020-09-03T06:26:09","18 SPCS","IRIDIUM 176","2019-002B","EARTH","TEME","UTC","SGP4","2020-09-03T04:17:38.692320","14.72251067","0.00022460","86.6158","156.6817","87.2071","272.9403","0","U","43923","999","8836","0.00001919100000","0.00000146","0.0000000000000","7032.027","97.809","655.472","652.313","PAYLOAD","LARGE","US","2019-01-11","AFWTR","","2813336","160627199","0 IRIDIUM 176","1 43923U 19002B   20247.17892005  .00000146  00000-0  19191-4 0  9996","2 43923  86.6158 156.6817 0002246  87.2071 272.9403 14.72251067 88367"
"2.0","GENERATED VIA SPACE-TRACK.ORG API","2020-09-03T07:16:10","18 SPCS","SL-18 DEB","1993-014BJ","EARTH","TEME","UTC","SGP4","2020-09-02T22:01:03.533664","14.81324234","0.00715980","75.7392","58.1165","26.5467","333.9357","0","U","35359","999","69441","0.00043307000000","0.00003515","0.0000000000000","7003.284","97.210","675.291","575.007","DEBRIS","SMALL","CIS","1993-03-25","PKMTR","","2813435","160629769","0 SL-18 DEB","1 35359U 93014BJ  20246.91740201  .00003515  00000-0  43307-3 0  9994","2 35359  75.7392  58.1165 0071598  26.5467 333.9357 14.81324234694415"
"2.0","GENERATED VIA SPACE-TRACK.ORG API","2020-09-03T01:48:27","18 SPCS","IRIDIUM 176","2019-002B","EARTH","TEME","UTC","SGP4","2020-09-02T20:08:16.608768","14.72250987","0.00022470","86.6158","156.8235","87.0189","273.1285","0","U","43923","999","8831","0.00001901900000","0.00000145","0.0000000000000","7032.028","97.809","655.473","652.313","PAYLOAD","LARGE","US","2019-01-11","AFWTR","","2813294","160626166","0 IRIDIUM 176","1 43923U 19002B   20246.83908112 +.00000145 +00000-0 +19019-4 0  9993","2 43923 086.6158 156.8235 0002247 087.0189 273.1285 14.72250987088318"
"2.0","GENERATED VIA SPACE-TRACK.ORG API","2020-09-02T18:57:38","18 SPCS","IRIDIUM 176","2019-002B","EARTH","TEME","UTC","SGP4","2020-09-02T11:58:54.521760","14.72250911","0.00022480","86.6158","156.9653","87.0172","273.1302","0","U","43923","999","8826","0.00001928600000","0.00000146","0.0000000000000","7032.028","97.809","655.474","652.312","PAYLOAD","LARGE","US","2019-01-11","AFWTR","","2813120","160600464","0 IRIDIUM 176","1 43923U 19002B   20246.49924215 +.00000146 +00000-0 +19286-4 0  9994","2 43923 086.6158 156.9653 0002248 087.0172 273.1302 14.72250911088267"
"2.0","GENERATED VIA SPACE-TRACK.ORG API","2020-09-02T06:26:10","18 SPCS","IRIDIUM 176","2019-002B","EARTH","TEME","UTC","SGP4","2020-09-02T00:33:47.603232","14.72250746","0.00022490","86.6159","157.1638","86.9317","273.2157","0","U","43923","999","8819","0.00001820900000","0.00000139","0.0000000000000","7032.028","97.809","655.475","652.312","PAYLOAD","LARGE","US","2019-01-11","AFWTR","","2812850","160575303","0 IRIDIUM 176","1 43923U 19002B   20246.02346763  .00000139  00000-0  18209-4 0  9995","2 43923  86.6159 157.1638 0002249  86.9317 273.2157 14.72250746 88191"
"2.0","GENERATED VIA SPACE-TRACK.ORG API","2020-09-02T04:04:35","18 SPCS","SL-18 DEB","1993-014BJ","EARTH","TEME","UTC","SGP4","2020-09-01T21:42:13.479552","14.81317213","0.00716420","75.7390","59.9076","29.1022","331.4126","0","U","35359","999","69360","0.00044620000000","0.00003622","0.0000000000000","7003.306","97.210","675.344","574.998","DEBRIS","SMALL","CIS","1993-03-25","PKMTR","","2812822","160547183","0 SL-18 DEB","1 35359U 93014BJ  20245.90432268 +.00003622 +00000-0 +44620-3 0  9991","2 35359 075.7390 059.9076 0071642 029.1022 331.4126 14.81317213693605"
"2.0","GENERATED VIA SPACE-TRACK.ORG API","2020-09-02T04:04:35","18 SPCS","IRIDIUM 176","2019-002B","EARTH","TEME","UTC","SGP4","2020-09-01T21:18:02.764800","14.72250733","0.00022510","86.6159","157.2205","87.0585","273.0890","0","U","43923","999","8817","0.00001819000000","0.00000139","0.0000000000000","7032.029","97.809","655.476","652.311","PAYLOAD","LARGE","US","2019-01-11","AFWTR","","2812822","160551365","0 IRIDIUM 176","1 43923U 19002B   20245.88753200 +.00000139 +00000-0 +18190-4 0  9995","2 43923 086.6159 157.2205 0002251 087.0585 273.0890 14.72250733088170"
"2.0","GENERATED VIA SPACE-TRACK.ORG API","2020-09-01T17:49:39","18 SPCS","IRIDIUM 176","2019-002B","EARTH","TEME","UTC","SGP4","2020-09-01T11:30:48.252960","14.72250673","0.00022480","86.6159","157.3906","86.9402","273.2073","0","U","43923","999","8811","0.00001882800000","0.00000143","0.0000000000000","7032.029","97.809","655.475","652.313","PAYLOAD","LARGE","US","2019-01-11","AFWTR","","2812600","160526809","0 IRIDIUM 176","1 43923U 19002B   20245.47972515 +.00000143 +00000-0 +18828-4 0  9995","2 43923 086.6159 157.3906 0002248 086.9402 273.2073 14.72250673088113"
"2.0","GENERATED VIA SPACE-TRACK.ORG API","2020-09-01T17:49:39","18 SPCS","SL-18 DEB","1993-014BJ","EARTH","TEME","UTC","SGP4","2020-09-01T05:29:39.872544","14.81312435","0.00716660","75.7391","61.1016","30.8110","329.7251","0","U","35359","999","69350","0.00045417000000","0.00003687","0.0000000000000","7003.321","97.211","675.376","574.996","DEBRIS","SMALL","CIS","1993-03-25","PKMTR","","2812600","160520779","0 SL-18 DEB","1 35359U 93014BJ  20245.22893371 +.00003687 +00000-0 +45417-3 0  9998","2 35359 075.7391 061.1016 0071666 030.8110 329.7251 14.81312435693507"
"2.0","GENERATED VIA SPACE-TRACK.ORG API","2020-09-01T07:06:09","18 SPCS","SL-18 DEB","1993-014BJ","EARTH","TEME","UTC","SGP4","2020-09-01T03:52:24.501216","14.81311924","0.00716680","75.7391","61.2210","30.9798","329.5584","0","U","35359","999","69415","0.00045331000000","0.00003680","0.0000000000000","7003.323","97.211","675.379","574.996","DEBRIS","SMALL","CIS","1993-03-25","PKMTR","","2812304","160502476","0 SL-18 DEB","1 35359U 93014BJ  20245.16139469  .00003680  00000-0  45331-3 0  9990","2 35359  75.7391  61.2210 0071668  30.9798 329.5584 14.81311924694150"
"2.0","GENERATED VIA SPACE-TRACK.ORG API","2020-08-31T22:26:10","18 SPCS","IRIDIUM 176","2019-002B","EARTH","TEME","UTC","SGP4","2020-08-31T19:12:04.069440","14.72250500","0.00022460","86.6160","157.6742","86.9194","273.2280","0","U","43923","999","8801","0.00001764000000","0.00000136","0.0000000000000","7032.029","97.809","655.474","652.315","PAYLOAD","LARGE","US","2019-01-11","AFWTR","","2812023","160475655","0 IRIDIUM 176","1 43923U 19002B   20244.80004710  .00000136  00000-0  17640-4 0  9997","2 43923  86.6160 157.6742 0002246  86.9194 273.2280 14.72250500 88010"
"2.0","GENERATED VIA SPACE-TRACK.ORG API","2020-09-01T03:53:43","18 SPCS","SL-18 DEB","1993-014BJ","EARTH","TEME","UTC","SGP4","2020-08-31T18:08:52.221408","14.81308604","0.00716910","75.7391","61.9375","31.9985","328.5523","0","U","35359","999","69343","0.00043753000000","0.00003551","0.0000000000000","7003.333","97.211","675.406","574.990","DEBRIS","SMALL","CIS","1993-03-25","PKMTR","","2812159","160492508","0 SL-18 DEB","1 35359U 93014BJ  20244.75615997 +.00003551 +00000-0 +43753-3 0  9992","2 35359 075.7391 061.9375 0071691 031.9985 328.5523 14.81308604693437"
"2.0","GENERATED VIA SPACE-TRACK.ORG API","2020-08-31T17:11:33","18 SPCS","IRIDIUM 176","2019-002B","EARTH","TEME","UTC","SGP4","2020-08-31T06:09:04.714848","14.72250377","0.00022430","86.6161","157.9011","86.7510","273.3964","0","U","43923","999","8793","0.00001674200000","0.00000130","0.0000000000000","7032.030","97.809","655.472","652.317","PAYLOAD","LARGE","US","2019-01-11","AFWTR","","2811973","160474097","0 IRIDIUM 176","1 43923U 19002B   20244.25630457 +.00000130 +00000-0 +16742-4 0  9995","2 43923 086.6161 157.9011 0002243 086.7510 273.3964 14.72250377087932"
